IRIDIUM 159             
1 43578U 18061K   25062.89664650  .00000039  00000+0  68488-5 0  9992
2 43578  86.3914 253.1919 0002009  96.4141 263.7283 14.34218069345973
IRIDIUM 180             
1 43922U 19002A   25063.38452715  .00000550  00000+0  18916-3 0  9990
2 43922  86.4033 189.9160 0002135  96.7185 263.4253 14.34216984321695
IRIDIUM 176             
1 43923U 19002B   25063.36619032  .00002019  00000+0  31638-3 0  9994
2 43923  86.6154 189.9242 0002860 112.6621 247.4899 14.72243308330129
IRIDIUM 168             
1 43924U 19002C   25062.88980457  .00000070  00000+0  18048-4 0  9999
2 43924  86.4036 190.1862 0002074  99.5504 260.5926 14.34216920321562
IRIDIUM 173             
1 43925U 19002D   25063.43526800  .00000099  00000+0  28320-4 0  9995
2 43925  86.4033 189.8670 0002233  95.7327 264.4124 14.34216910321630
IRIDIUM 169             
1 43926U 19002E   25062.91640871  .00000714  00000+0  22685-3 0  9994
2 43926  86.4229 221.6623 0003630  85.6356 274.5257 14.38602936322612
IRIDIUM 172             
1 43927U 19002F   25063.42892441  .00000367  00000+0  12389-3 0  9998
2 43927  86.4036 189.8761 0002075 100.9309 259.2120 14.34217335321639
IRIDIUM 175             
1 43928U 19002G   25063.15708182  .00001707  00000+0  26680-3 0  9995
2 43928  86.1549 148.5380 0002719  73.1574 286.9940 14.72233709330086
